start=new Date('2022-05-21T00:00:00.000Z').valueOf();
sats=[{"OBJECT_NAME":"STARLINK-3127","TLE_LINE2":"2 49450  53.2157 333.5814 0002093  32.0981  51.0449 15.08825911 30197","TLE_LINE1":"1 49450U 21104AU  22140.91667824  .00021658  00000-0  13752-2 0  9994","OBJECT_TYPE":"PAYLOAD","COUNTRY_CODE":"US","GP_ID":"204045011","NORAD_CAT_ID":"49450","OBJECT_ID":"2021-104AU","SEMIMAJOR_AXIS":"6917.923","REV_AT_EPOCH":"3019","MEAN_ELEMENT_THEORY":"SGP4","APOAPSIS":"541.236","EPHEMERIS_TYPE":"0","LAUNCH_DATE":"2021-11-13","CLASSIFICATION_TYPE":"U","RA_OF_ASC_NODE":"333.5814","RCS_SIZE":"LARGE","MEAN_MOTION_DDOT":"0.0000000000000","TIME_SYSTEM":"UTC","ECCENTRICITY":"0.00020930","MEAN_ANOMALY":"51.0449","PERIAPSIS":"538.341","MEAN_MOTION_DOT":"0.00021658","BSTAR":"0.00137520000000","MEAN_MOTION":"15.08825911","EPOCH":"2022-05-20T22:00:00.999936","ARG_OF_PERICENTER":"32.0981","CENTER_NAME":"EARTH","FILE":"3455273","INCLINATION":"53.2157","REF_FRAME":"TEME","ELEMENT_SET_NO":"999","PERIOD":"95.438","SITE":"AFETR","DECAY_DATE":null},{"DECAY_DATE":null,"PERIOD":"95.438","SITE":"AFETR","FILE":"3455160","REF_FRAME":"TEME","INCLINATION":"53.2176","ARG_OF_PERICENTER":"31.3672","CENTER_NAME":"EARTH","ELEMENT_SET_NO":"999","MEAN_MOTION":"15.08836889","EPOCH":"2022-05-20T14:00:01.000224","PERIAPSIS":"537.998","MEAN_MOTION_DOT":"0.00000196","MEAN_ANOMALY":"100.0865","BSTAR":"0.00003041000000","MEAN_MOTION_DDOT":"0.0000000000000","TIME_SYSTEM":"UTC","ECCENTRICITY":"0.00025400","CLASSIFICATION_TYPE":"U","LAUNCH_DATE":"2021-11-13","RA_OF_ASC_NODE":"335.0539","EPHEMERIS_TYPE":"0","RCS_SIZE":"LARGE","SEMIMAJOR_AXIS":"6917.890","REV_AT_EPOCH":"130","OBJECT_TYPE":"PAYLOAD","COUNTRY_CODE":"US","OBJECT_ID":"2021-104AV","GP_ID":"204042920","NORAD_CAT_ID":"49451","MEAN_ELEMENT_THEORY":"SGP4","APOAPSIS":"541.512","OBJECT_NAME":"STARLINK-3125","TLE_LINE2":"2 49451  53.2176 335.0539 0002540  31.3672 100.0865 15.08836889  1300","TLE_LINE1":"1 49451U 21104AV  22140.58334491  .00000196  00000-0  30410-4 0  9995"},{"EPOCH":"2022-05-20T20:00:01.000224","MEAN_MOTION":"15.08848423","BSTAR":"-0.00206490000000","PERIAPSIS":"538.105","MEAN_MOTION_DOT":"-0.00033010","MEAN_ANOMALY":"89.4740","DECAY_DATE":null,"PERIOD":"95.437","SITE":"AFETR","ELEMENT_SET_NO":"999","FILE":"3455271","REF_FRAME":"TEME","INCLINATION":"53.2178","CENTER_NAME":"EARTH","ARG_OF_PERICENTER":"35.5319","MEAN_ELEMENT_THEORY":"SGP4","APOAPSIS":"541.334","SEMIMAJOR_AXIS":"6917.855","REV_AT_EPOCH":"3019","OBJECT_TYPE":"PAYLOAD","COUNTRY_CODE":"US","OBJECT_ID":"2021-104AW","GP_ID":"204044890","NORAD_CAT_ID":"49452","TLE_LINE2":"2 49452  53.2178 333.9286 0002334  35.5319  89.4740 15.08848423 30192","TLE_LINE1":"1 49452U 21104AW  22140.83334491 -.00033010  00000-0 -20649-2 0  9998","OBJECT_NAME":"STARLINK-3150","ECCENTRICITY":"0.00023340","TIME_SYSTEM":"UTC","MEAN_MOTION_DDOT":"0.0000000000000","RCS_SIZE":"LARGE","CLASSIFICATION_TYPE":"U","LAUNCH_DATE":"2021-11-13","RA_OF_ASC_NODE":"333.9286","EPHEMERIS_TYPE":"0"},{"CENTER_NAME":"EARTH","ARG_OF_PERICENTER":"31.9566","REF_FRAME":"TEME","INCLINATION":"53.2188","FILE":"3455273","ELEMENT_SET_NO":"999","SITE":"AFETR","PERIOD":"95.440","DECAY_DATE":null,"MEAN_ANOMALY":"151.1827","MEAN_MOTION_DOT":"0.00031329","PERIAPSIS":"538.328","BSTAR":"0.00198000000000","MEAN_MOTION":"15.08799109","EPOCH":"2022-05-20T22:00:00.999936","EPHEMERIS_TYPE":"0","RA_OF_ASC_NODE":"333.5582","LAUNCH_DATE":"2021-11-13","CLASSIFICATION_TYPE":"U","RCS_SIZE":"LARGE","MEAN_MOTION_DDOT":"0.0000000000000","TIME_SYSTEM":"UTC","ECCENTRICITY":"0.00022290","OBJECT_NAME":"STARLINK-3129","TLE_LINE1":"1 49453U 21104AX  22140.91667824  .00031329  00000-0  19800-2 0  9993","TLE_LINE2":"2 49453  53.2188 333.5582 0002229  31.9566 151.1827 15.08799109 30195","GP_ID":"204045277","OBJECT_ID":"2021-104AX","NORAD_CAT_ID":"49453","COUNTRY_CODE":"US","OBJECT_TYPE":"PAYLOAD","SEMIMAJOR_AXIS":"6918.005","REV_AT_EPOCH":"3019","APOAPSIS":"541.412","MEAN_ELEMENT_THEORY":"SGP4"},{"MEAN_MOTION":"15.08827784","EPOCH":"2022-05-20T22:00:00.999936","PERIAPSIS":"537.663","MEAN_MOTION_DOT":"0.00014839","MEAN_ANOMALY":"137.9128","BSTAR":"0.00094877000000","DECAY_DATE":null,"PERIOD":"95.438","SITE":"AFETR","FILE":"3455279","REF_FRAME":"TEME","INCLINATION":"53.2200","CENTER_NAME":"EARTH","ARG_OF_PERICENTER":"25.1817","ELEMENT_SET_NO":"999","SEMIMAJOR_AXIS":"6917.918","REV_AT_EPOCH":"3020","OBJECT_TYPE":"PAYLOAD","COUNTRY_CODE":"US","GP_ID":"204045082","NORAD_CAT_ID":"49454","OBJECT_ID":"2021-104AY","MEAN_ELEMENT_THEORY":"SGP4","APOAPSIS":"541.902","OBJECT_NAME":"STARLINK-3160","TLE_LINE2":"2 49454  53.2200 333.5659 0003064  25.1817 137.9128 15.08827784 30207","TLE_LINE1":"1 49454U 21104AY  22140.91667824  .00014839  00000-0  94877-3 0  9999","TIME_SYSTEM":"UTC","MEAN_MOTION_DDOT":"0.0000000000000","ECCENTRICITY":"0.00030640","LAUNCH_DATE":"2021-11-13","CLASSIFICATION_TYPE":"U","RA_OF_ASC_NODE":"333.5659","EPHEMERIS_TYPE":"0","RCS_SIZE":"LARGE"},{"PERIOD":"95.438","SITE":"AFETR","DECAY_DATE":null,"CENTER_NAME":"EARTH","ARG_OF_PERICENTER":"34.5287","FILE":"3455583","INCLINATION":"53.2174","REF_FRAME":"TEME","ELEMENT_SET_NO":"999","MEAN_MOTION":"15.08836085","EPOCH":"2022-05-20T22:00:00.999936","MEAN_ANOMALY":"208.5167","PERIAPSIS":"538.191","MEAN_MOTION_DOT":"0.00001305","BSTAR":"0.00010012000000","TIME_SYSTEM":"UTC","MEAN_MOTION_DDOT":"0.0000000000000","ECCENTRICITY":"0.00022640","EPHEMERIS_TYPE":"0","LAUNCH_DATE":"2021-11-13","CLASSIFICATION_TYPE":"U","RA_OF_ASC_NODE":"333.5593","RCS_SIZE":"LARGE","OBJECT_TYPE":"PAYLOAD","COUNTRY_CODE":"US","NORAD_CAT_ID":"49455","GP_ID":"204051281","OBJECT_ID":"2021-104AZ","REV_AT_EPOCH":"3019","SEMIMAJOR_AXIS":"6917.892","MEAN_ELEMENT_THEORY":"SGP4","APOAPSIS":"541.324","OBJECT_NAME":"STARLINK-3145","TLE_LINE2":"2 49455  53.2174 333.5593 0002264  34.5287 208.5167 15.08836085 30191","TLE_LINE1":"1 49455U 21104AZ  22140.91667824  .00001305  00000-0  10012-3 0  9993"},{"PERIOD":"95.439","SITE":"AFETR","DECAY_DATE":null,"ELEMENT_SET_NO":"999","CENTER_NAME":"EARTH","ARG_OF_PERICENTER":"24.7492","FILE":"3455308","INCLINATION":"53.2199","REF_FRAME":"TEME","EPOCH":"2022-05-20T22:00:00.999936","MEAN_MOTION":"15.08824213","BSTAR":"0.00232350000000","MEAN_ANOMALY":"178.3505","PERIAPSIS":"537.991","MEAN_MOTION_DOT":"0.00036869","ECCENTRICITY":"0.00026060","TIME_SYSTEM":"UTC","MEAN_MOTION_DDOT":"0.0000000000000","RCS_SIZE":"LARGE","EPHEMERIS_TYPE":"0","LAUNCH_DATE":"2021-11-13","CLASSIFICATION_TYPE":"U","RA_OF_ASC_NODE":"333.5652","MEAN_ELEMENT_THEORY":"SGP4","APOAPSIS":"541.596","OBJECT_TYPE":"PAYLOAD","COUNTRY_CODE":"US","GP_ID":"204045412","OBJECT_ID":"2021-104BA","NORAD_CAT_ID":"49456","SEMIMAJOR_AXIS":"6917.929","REV_AT_EPOCH":"3019","TLE_LINE2":"2 49456  53.2199 333.5652 0002606  24.7492 178.3505 15.08824213 30194","TLE_LINE1":"1 49456U 21104BA  22140.91667824  .00036869  00000-0  23235-2 0  9997","OBJECT_NAME":"STARLINK-3124"},{"NORAD_CAT_ID":"49457","GP_ID":"204001515","OBJECT_ID":"2021-104BB","COUNTRY_CODE":"US","OBJECT_TYPE":"PAYLOAD","SEMIMAJOR_AXIS":"6917.876","REV_AT_EPOCH":"3014","APOAPSIS":"541.216","MEAN_ELEMENT_THEORY":"SGP4","OBJECT_NAME":"STARLINK-3132","TLE_LINE1":"1 49457U 21104BB  22140.58334491  .00015069  00000-0  96284-3 0  9996","TLE_LINE2":"2 49457  53.2180 335.0532 0002132  38.7770 212.7195 15.08841373 30146","TIME_SYSTEM":"UTC","MEAN_MOTION_DDOT":"0.0000000000000","ECCENTRICITY":"0.00021320","EPHEMERIS_TYPE":"0","RA_OF_ASC_NODE":"335.0532","CLASSIFICATION_TYPE":"U","LAUNCH_DATE":"2021-11-13","RCS_SIZE":"LARGE","MEAN_MOTION":"15.08841373","EPOCH":"2022-05-20T14:00:01.000224","MEAN_ANOMALY":"212.7195","MEAN_MOTION_DOT":"0.00015069","PERIAPSIS":"538.266","BSTAR":"0.00096284000000","SITE":"AFETR","PERIOD":"95.437","DECAY_DATE":null,"ARG_OF_PERICENTER":"38.7770","CENTER_NAME":"EARTH","REF_FRAME":"TEME","INCLINATION":"53.2180","FILE":"3454300","ELEMENT_SET_NO":"999"},{"EPOCH":"2022-05-20T22:00:00.999936","MEAN_MOTION":"15.08822892","BSTAR":"0.00036478000000","MEAN_ANOMALY":"194.3080","PERIAPSIS":"537.893","MEAN_MOTION_DOT":"0.00005519","PERIOD":"95.439","SITE":"AFETR","DECAY_DATE":null,"ELEMENT_SET_NO":"999","ARG_OF_PERICENTER":"28.7988","CENTER_NAME":"EARTH","FILE":"3455338","INCLINATION":"53.2184","REF_FRAME":"TEME","MEAN_ELEMENT_THEORY":"SGP4","APOAPSIS":"541.702","OBJECT_TYPE":"PAYLOAD","COUNTRY_CODE":"US","NORAD_CAT_ID":"49458","GP_ID":"204045469","OBJECT_ID":"2021-104BC","REV_AT_EPOCH":"3020","SEMIMAJOR_AXIS":"6917.933","TLE_LINE2":"2 49458  53.2184 333.5568 0002753  28.7988 194.3080 15.08822892 30202","TLE_LINE1":"1 49458U 21104BC  22140.91667824  .00005519  00000-0  36478-3 0  9991","OBJECT_NAME":"STARLINK-3156","ECCENTRICITY":"0.00027530","MEAN_MOTION_DDOT":"0.0000000000000","TIME_SYSTEM":"UTC","RCS_SIZE":"LARGE","EPHEMERIS_TYPE":"0","LAUNCH_DATE":"2021-11-13","CLASSIFICATION_TYPE":"U","RA_OF_ASC_NODE":"333.5568"},{"RCS_SIZE":"LARGE","RA_OF_ASC_NODE":"335.0562","CLASSIFICATION_TYPE":"U","LAUNCH_DATE":"2021-11-13","EPHEMERIS_TYPE":"0","ECCENTRICITY":"0.00022850","TIME_SYSTEM":"UTC","MEAN_MOTION_DDOT":"0.0000000000000","TLE_LINE1":"1 49459U 21104BD  22140.58334491 -.00024372  00000-0 -15174-2 0  9995","TLE_LINE2":"2 49459  53.2184 335.0562 0002285  33.6276 237.8698 15.08861354  1302","OBJECT_NAME":"STARLINK-3141","APOAPSIS":"541.261","MEAN_ELEMENT_THEORY":"SGP4","SEMIMAJOR_AXIS":"6917.815","REV_AT_EPOCH":"130","NORAD_CAT_ID":"49459","GP_ID":"204042921","OBJECT_ID":"2021-104BD","COUNTRY_CODE":"US","OBJECT_TYPE":"PAYLOAD","ELEMENT_SET_NO":"999","INCLINATION":"53.2184","REF_FRAME":"TEME","FILE":"3455160","CENTER_NAME":"EARTH","ARG_OF_PERICENTER":"33.6276","DECAY_DATE":null,"SITE":"AFETR","PERIOD":"95.436","BSTAR":"-0.00151740000000","MEAN_MOTION_DOT":"-0.00024372","PERIAPSIS":"538.099","MEAN_ANOMALY":"237.8698","EPOCH":"2022-05-20T14:00:01.000224","MEAN_MOTION":"15.08861354"}];
